{
  "norad_id": 59086,
  "name": "STARLINK-31279",
  "history": [
    {
      "epoch": "2026-03-28T16:36:24.498144",
      "apogee_km": 483.7621161288389,
      "perigee_km": 482.2879268569013,
      "latitude_deg": -32.940759217285326,
      "longitude_deg": 155.0272201600019,
      "semi_major_axis_km": 6861.16202149287,
      "eccentricity": 0.00010743,
      "inclination_deg": 43.0013,
      "raan_deg": 203.7321,
      "arg_perigee_deg": 269.1658,
      "mean_anomaly_deg": 90.9071,
      "mean_motion_rev_day": 15.2758804
    }
  ]
}